{
  "type": "FeatureCollection",
  "features": [
    {
      "type": "Feature",
      "properties": {
        "norad_id": 66523,
        "name": "STARLINK-35969",
        "group": "last-30-days",
        "lat": 20.666797414539655,
        "lon": 126.14486862463585,
        "alt_km": 346.40516889557784,
        "timestamp": "2025-12-04T13:51:59.227420+00:00",
        "meta_object_name": "STARLINK-35969",
        "meta_object_id": "2025-265H",
        "meta_epoch": "2025-12-04T08:00:01.999872",
        "meta_mean_motion": 15.74429834,
        "meta_eccentricity": 8.998e-05,
        "meta_inclination": 42.9996,
        "meta_ra_of_asc_node": 103.7467,
        "meta_arg_of_pericenter": 251.719,
        "meta_mean_anomaly": 192.946,
        "meta_ephemeris_type": 0,
        "meta_classification_type": "U",
        "meta_norad_cat_id": 66523,
        "meta_element_set_no": 999,
        "meta_rev_at_epoch": 364,
        "meta_bstar": -0.013705129,
        "meta_mean_motion_dot": -0.01796835,
        "meta_mean_motion_ddot": 0,
        "tle_line1": "1 66523U 25265H   25338.33335648 -.01796835  00000+0 -13705-1 0  9995",
        "tle_line2": "2 66523  42.9996 103.7467 0000899 251.7190 192.9460 15.74429834  3643"
      },
      "geometry": {
        "type": "Point",
        "coordinates": [
          126.14486862463585,
          20.666797414539655
        ]
      }
    },
    {
      "type": "Feature",
      "properties": {
        "norad_id": 66524,
        "name": "STARLINK-35687",
        "group": "last-30-days",
        "lat": 21.86122903277023,
        "lon": 127.76456871552368,
        "alt_km": 346.1173687889295,
        "timestamp": "2025-12-04T13:51:59.227431+00:00",
        "meta_object_name": "STARLINK-35687",
        "meta_object_id": "2025-265J",
        "meta_epoch": "2025-12-04T08:00:01.999872",
        "meta_mean_motion": 15.74429896,
        "meta_eccentricity": 0.00013013,
        "meta_inclination": 42.9994,
        "meta_ra_of_asc_node": 103.7416,
        "meta_arg_of_pericenter": 276.193,
        "meta_mean_anomaly": 170.3926,
        "meta_ephemeris_type": 0,
        "meta_classification_type": "U",
        "meta_norad_cat_id": 66524,
        "meta_element_set_no": 999,
        "meta_rev_at_epoch": 364,
        "meta_bstar": -0.01372319,
        "meta_mean_motion_dot": -0.01799219,
        "meta_mean_motion_ddot": 0,
        "tle_line1": "1 66524U 25265J   25338.33335648 -.01799219  00000+0 -13723-1 0  9995",
        "tle_line2": "2 66524  42.9994 103.7416 0001301 276.1930 170.3926 15.74429896  3643"
      },
      "geometry": {
        "type": "Point",
        "coordinates": [
          127.76456871552368,
          21.86122903277023
        ]
      }
    },
    {
      "type": "Feature",
      "properties": {
        "norad_id": 66525,
        "name": "STARLINK-35975",
        "group": "last-30-days",
        "lat": 23.040002342664764,
        "lon": 129.41250405071872,
        "alt_km": 346.20749040543524,
        "timestamp": "2025-12-04T13:51:59.227441+00:00",
        "meta_object_name": "STARLINK-35975",
        "meta_object_id": "2025-265K",
        "meta_epoch": "2025-12-04T08:00:01.999872",
        "meta_mean_motion": 15.74415356,
        "meta_eccentricity": 0.00010763,
        "meta_inclination": 42.9995,
        "meta_ra_of_asc_node": 103.737,
        "meta_arg_of_pericenter": 256.4139,
        "meta_mean_anomaly": 192.121,
        "meta_ephemeris_type": 0,
        "meta_classification_type": "U",
        "meta_norad_cat_id": 66525,
        "meta_element_set_no": 999,
        "meta_rev_at_epoch": 364,
        "meta_bstar": -0.013822955,
        "meta_mean_motion_dot": -0.01809451,
        "meta_mean_motion_ddot": 0,
        "tle_line1": "1 66525U 25265K   25338.33335648 -.01809451  00000+0 -13823-1 0  9997",
        "tle_line2": "2 66525  42.9995 103.7370 0001076 256.4139 192.1210 15.74415356  3649"
      },
      "geometry": {
        "type": "Point",
        "coordinates": [
          129.41250405071872,
          23.040002342664764
        ]
      }
    },
    {
      "type": "Feature",
      "properties": {
        "norad_id": 66526,
        "name": "STARLINK-35932",
        "group": "last-30-days",
        "lat": 24.20246946770329,
        "lon": 131.09094660112373,
        "alt_km": 346.14948256289244,
        "timestamp": "2025-12-04T13:51:59.227454+00:00",
        "meta_object_name": "STARLINK-35932",
        "meta_object_id": "2025-265L",
        "meta_epoch": "2025-12-04T08:00:01.999872",
        "meta_mean_motion": 15.74422848,
        "meta_eccentricity": 0.00016145,
        "meta_inclination": 42.9996,
        "meta_ra_of_asc_node": 103.7323,
        "meta_arg_of_pericenter": 266.8006,
        "meta_mean_anomaly": 183.6541,
        "meta_ephemeris_type": 0,
        "meta_classification_type": "U",
        "meta_norad_cat_id": 66526,
        "meta_element_set_no": 999,
        "meta_rev_at_epoch": 353,
        "meta_bstar": -0.013939557,
        "meta_mean_motion_dot": -0.01823724,
        "meta_mean_motion_ddot": 0,
        "tle_line1": "1 66526U 25265L   25338.33335648 -.01823724  00000+0 -13940-1 0  9997",
        "tle_line2": "2 66526  42.9996 103.7323 0001614 266.8006 183.6541 15.74422848  3539"
      },
      "geometry": {
        "type": "Point",
        "coordinates": [
          131.09094660112373,
          24.20246946770329
        ]
      }
    },
    {
      "type": "Feature",
      "properties": {
        "norad_id": 66527,
        "name": "STARLINK-35935",
        "group": "last-30-days",
        "lat": 25.32896378099719,
        "lon": 132.77428904641917,
        "alt_km": 345.67793796505794,
        "timestamp": "2025-12-04T13:51:59.227464+00:00",
        "meta_object_name": "STARLINK-35935",
        "meta_object_id": "2025-265M",
        "meta_epoch": "2025-12-04T08:00:01.999872",
        "meta_mean_motion": 15.74419084,
        "meta_eccentricity": 7.186e-05,
        "meta_inclination": 42.9995,
        "meta_ra_of_asc_node": 103.7277,
        "meta_arg_of_pericenter": 252.0438,
        "meta_mean_anomaly": 200.3211,
        "meta_ephemeris_type": 0,
        "meta_classification_type": "U",
        "meta_norad_cat_id": 66527,
        "meta_element_set_no": 999,
        "meta_rev_at_epoch": 364,
        "meta_bstar": -0.013832645,
        "meta_mean_motion_dot": -0.01810543,
        "meta_mean_motion_ddot": 0,
        "tle_line1": "1 66527U 25265M   25338.33335648 -.01810543  00000+0 -13833-1 0  9994",
        "tle_line2": "2 66527  42.9995 103.7277 0000718 252.0438 200.3211 15.74419084  3648"
      },
      "geometry": {
        "type": "Point",
        "coordinates": [
          132.77428904641917,
          25.32896378099719
        ]
      }
    },
    {
      "type": "Feature",
      "properties": {
        "norad_id": 66528,
        "name": "STARLINK-35928",
        "group": "last-30-days",
        "lat": 26.44985154554215,
        "lon": 134.51043140716035,
        "alt_km": 345.7032663712789,
        "timestamp": "2025-12-04T13:51:59.227476+00:00",
        "meta_object_name": "STARLINK-35928",
        "meta_object_id": "2025-265N",
        "meta_epoch": "2025-12-04T08:00:01.999872",
        "meta_mean_motion": 15.7442105,
        "meta_eccentricity": 0.00011851,
        "meta_inclination": 42.9997,
        "meta_ra_of_asc_node": 103.7227,
        "meta_arg_of_pericenter": 261.9344,
        "meta_mean_anomaly": 192.3503,
        "meta_ephemeris_type": 0,
        "meta_classification_type": "U",
        "meta_norad_cat_id": 66528,
        "meta_element_set_no": 999,
        "meta_rev_at_epoch": 364,
        "meta_bstar": -0.013884221,
        "meta_mean_motion_dot": -0.0181693,
        "meta_mean_motion_ddot": 0,
        "tle_line1": "1 66528U 25265N   25338.33335648 -.01816930  00000+0 -13884-1 0  9997",
        "tle_line2": "2 66528  42.9997 103.7227 0001185 261.9344 192.3503 15.74421050  3640"
      },
      "geometry": {
        "type": "Point",
        "coordinates": [
          134.51043140716035,
          26.44985154554215
        ]
      }
    },
    {
      "type": "Feature",
      "properties": {
        "norad_id": 66529,
        "name": "STARLINK-35933",
        "group": "last-30-days",
        "lat": 27.541627412903857,
        "lon": 136.26812116802765,
        "alt_km": 345.5594129017127,
        "timestamp": "2025-12-04T13:51:59.227491+00:00",
        "meta_object_name": "STARLINK-35933",
        "meta_object_id": "2025-265P",
        "meta_epoch": "2025-12-04T08:00:01.999872",
        "meta_mean_motion": 15.74420635,
        "meta_eccentricity": 0.00011211,
        "meta_inclination": 42.9996,
        "meta_ra_of_asc_node": 103.7175,
        "meta_arg_of_pericenter": 256.6509,
        "meta_mean_anomaly": 199.546,
        "meta_ephemeris_type": 0,
        "meta_classification_type": "U",
        "meta_norad_cat_id": 66529,
        "meta_element_set_no": 999,
        "meta_rev_at_epoch": 364,
        "meta_bstar": -0.013843886,
        "meta_mean_motion_dot": -0.01812244,
        "meta_mean_motion_ddot": 0,
        "tle_line1": "1 66529U 25265P   25338.33335648 -.01812244  00000+0 -13844-1 0  9998",
        "tle_line2": "2 66529  42.9996 103.7175 0001121 256.6509 199.5460 15.74420635  3645"
      },
      "geometry": {
        "type": "Point",
        "coordinates": [
          136.26812116802765,
          27.541627412903857
        ]
      }
    }
  ]
}